{
  "type": "FeatureCollection",
  "features": [
    {
      "type": "Feature",
      "properties": {
        "norad_id": 58701,
        "name": "TIANMU-1 16",
        "group": "weather",
        "lat": 75.59120064221933,
        "lon": 149.01578080823901,
        "alt_km": 487.7526997795376,
        "timestamp": "2025-12-24T20:42:20.662324+00:00",
        "meta_object_name": "TIANMU-1 16",
        "meta_object_id": "2024-004B",
        "meta_epoch": "2025-12-24T07:45:52.425216",
        "meta_mean_motion": 15.24583341,
        "meta_eccentricity": 0.00043868,
        "meta_inclination": 97.4567,
        "meta_ra_of_asc_node": 179.129,
        "meta_arg_of_pericenter": 243.3337,
        "meta_mean_anomaly": 116.7451,
        "meta_ephemeris_type": 0,
        "meta_classification_type": "U",
        "meta_norad_cat_id": 58701,
        "meta_element_set_no": 999,
        "meta_rev_at_epoch": 10911,
        "meta_bstar": 0.0003236331,
        "meta_mean_motion_dot": 7.907e-05,
        "meta_mean_motion_ddot": 0,
        "tle_line1": "1 58701U 24004B   25358.32352344  .00007907  00000+0  32363-3 0  9992",
        "tle_line2": "2 58701  97.4567 179.1290 0004386 243.3337 116.7451 15.24583341109119"
      },
      "geometry": {
        "type": "Point",
        "coordinates": [
          149.01578080823901,
          75.59120064221933
        ]
      }
    },
    {
      "type": "Feature",
      "properties": {
        "norad_id": 58702,
        "name": "TIANMU-1 17",
        "group": "weather",
        "lat": 15.703913978907629,
        "lon": 2.19328689315383,
        "alt_km": 492.20978360240315,
        "timestamp": "2025-12-24T20:42:20.662334+00:00",
        "meta_object_name": "TIANMU-1 17",
        "meta_object_id": "2024-004C",
        "meta_epoch": "2025-12-24T07:23:12.850368",
        "meta_mean_motion": 15.24626902,
        "meta_eccentricity": 0.00035614,
        "meta_inclination": 97.4601,
        "meta_ra_of_asc_node": 179.5293,
        "meta_arg_of_pericenter": 244.0629,
        "meta_mean_anomaly": 116.0242,
        "meta_ephemeris_type": 0,
        "meta_classification_type": "U",
        "meta_norad_cat_id": 58702,
        "meta_element_set_no": 999,
        "meta_rev_at_epoch": 10910,
        "meta_bstar": 0.00031119397,
        "meta_mean_motion_dot": 7.61e-05,
        "meta_mean_motion_ddot": 0,
        "tle_line1": "1 58702U 24004C   25358.30778762  .00007610  00000+0  31119-3 0  9996",
        "tle_line2": "2 58702  97.4601 179.5293 0003561 244.0629 116.0242 15.24626902109103"
      },
      "geometry": {
        "type": "Point",
        "coordinates": [
          2.19328689315383,
          15.703913978907629
        ]
      }
    },
    {
      "type": "Feature",
      "properties": {
        "norad_id": 58703,
        "name": "TIANMU-1 18",
        "group": "weather",
        "lat": -73.28474113698493,
        "lon": -25.597355834896735,
        "alt_km": 497.3220934314095,
        "timestamp": "2025-12-24T20:42:20.662344+00:00",
        "meta_object_name": "TIANMU-1 18",
        "meta_object_id": "2024-004D",
        "meta_epoch": "2025-12-24T06:59:20.956128",
        "meta_mean_motion": 15.24609351,
        "meta_eccentricity": 0.00029341,
        "meta_inclination": 97.4618,
        "meta_ra_of_asc_node": 179.7106,
        "meta_arg_of_pericenter": 241.156,
        "meta_mean_anomaly": 118.9383,
        "meta_ephemeris_type": 0,
        "meta_classification_type": "U",
        "meta_norad_cat_id": 58703,
        "meta_element_set_no": 999,
        "meta_rev_at_epoch": 10910,
        "meta_bstar": 0.00028162232,
        "meta_mean_motion_dot": 6.875e-05,
        "meta_mean_motion_ddot": 0,
        "tle_line1": "1 58703U 24004D   25358.29121477  .00006875  00000+0  28162-3 0  9996",
        "tle_line2": "2 58703  97.4618 179.7106 0002934 241.1560 118.9383 15.24609351109108"
      },
      "geometry": {
        "type": "Point",
        "coordinates": [
          -25.597355834896735,
          -73.28474113698493
        ]
      }
    },
    {
      "type": "Feature",
      "properties": {
        "norad_id": 58990,
        "name": "INSAT-3DS",
        "group": "weather",
        "lat": 0.043618536425213635,
        "lon": 126.312636078489,
        "alt_km": 35790.551052327406,
        "timestamp": "2025-12-24T20:42:20.662356+00:00",
        "meta_object_name": "INSAT-3DS",
        "meta_object_id": "2024-033A",
        "meta_epoch": "2025-12-23T23:47:43.165248",
        "meta_mean_motion": 1.00271469,
        "meta_eccentricity": 0.00012007,
        "meta_inclination": 0.0583,
        "meta_ra_of_asc_node": 100.0979,
        "meta_arg_of_pericenter": 175.0644,
        "meta_mean_anomaly": 256.6499,
        "meta_ephemeris_type": 0,
        "meta_classification_type": "U",
        "meta_norad_cat_id": 58990,
        "meta_element_set_no": 999,
        "meta_rev_at_epoch": 4531,
        "meta_bstar": 0,
        "meta_mean_motion_dot": -1.35e-06,
        "meta_mean_motion_ddot": 0,
        "tle_line1": "1 58990U 24033A   25357.99147182 -.00000135  00000+0  00000+0 0  9994",
        "tle_line2": "2 58990   0.0583 100.0979 0001200 175.0644 256.6499  1.00271469 45319"
      },
      "geometry": {
        "type": "Point",
        "coordinates": [
          126.312636078489,
          0.043618536425213635
        ]
      }
    },
    {
      "type": "Feature",
      "properties": {
        "norad_id": 59051,
        "name": "METEOR-M2 4",
        "group": "weather",
        "lat": -59.34917815688206,
        "lon": -29.482006749489877,
        "alt_km": 820.0636582812649,
        "timestamp": "2025-12-24T20:42:20.662367+00:00",
        "meta_object_name": "METEOR-M2 4",
        "meta_object_id": "2024-039A",
        "meta_epoch": "2025-12-24T07:29:00.273408",
        "meta_mean_motion": 14.2240298,
        "meta_eccentricity": 0.00064305,
        "meta_inclination": 98.6783,
        "meta_ra_of_asc_node": 315.0401,
        "meta_arg_of_pericenter": 323.8625,
        "meta_mean_anomaly": 36.2118,
        "meta_ephemeris_type": 0,
        "meta_classification_type": "U",
        "meta_norad_cat_id": 59051,
        "meta_element_set_no": 999,
        "meta_rev_at_epoch": 9440,
        "meta_bstar": 3.7257025e-05,
        "meta_mean_motion_dot": 3.9e-07,
        "meta_mean_motion_ddot": 0,
        "tle_line1": "1 59051U 24039A   25358.31180872  .00000039  00000+0  37257-4 0  9990",
        "tle_line2": "2 59051  98.6783 315.0401 0006430 323.8625  36.2118 14.22402980 94409"
      },
      "geometry": {
        "type": "Point",
        "coordinates": [
          -29.482006749489877,
          -59.34917815688206
        ]
      }
    },
    {
      "type": "Feature",
      "properties": {
        "norad_id": 60133,
        "name": "GOES 19",
        "group": "weather",
        "lat": 0.0035341297877131824,
        "lon": -30.97128851911441,
        "alt_km": 35781.94869486545,
        "timestamp": "2025-12-24T20:42:20.662411+00:00",
        "meta_object_name": "GOES 19",
        "meta_object_id": "2024-119A",
        "meta_epoch": "2025-12-24T05:27:09.221184",
        "meta_mean_motion": 1.00271489,
        "meta_eccentricity": 0.00010202,
        "meta_inclination": 0.0168,
        "meta_ra_of_asc_node": 190.8662,
        "meta_arg_of_pericenter": 132.4729,
        "meta_mean_anomaly": 136.2716,
        "meta_ephemeris_type": 0,
        "meta_classification_type": "U",
        "meta_norad_cat_id": 60133,
        "meta_element_set_no": 999,
        "meta_rev_at_epoch": 521,
        "meta_bstar": 0,
        "meta_mean_motion_dot": -2.27e-06,
        "meta_mean_motion_ddot": 0,
        "tle_line1": "1 60133U 24119A   25358.22719006 -.00000227  00000+0  00000+0 0  9990",
        "tle_line2": "2 60133   0.0168 190.8662 0001020 132.4729 136.2716  1.00271489  5219"
      },
      "geometry": {
        "type": "Point",
        "coordinates": [
          -30.97128851911441,
          0.0035341297877131824
        ]
      }
    },
    {
      "type": "Feature",
      "properties": {
        "norad_id": 65815,
        "name": "FENGYUN 3H",
        "group": "weather",
        "lat": 67.9637851472441,
        "lon": -83.92838244957612,
        "alt_km": 818.5470820683704,
        "timestamp": "2025-12-24T20:42:20.662428+00:00",
        "meta_object_name": "FENGYUN 3H",
        "meta_object_id": "2025-219A",
        "meta_epoch": "2025-12-24T05:09:28.938528",
        "meta_mean_motion": 14.19907616,
        "meta_eccentricity": 8.226e-05,
        "meta_inclination": 98.6601,
        "meta_ra_of_asc_node": 297.5569,
        "meta_arg_of_pericenter": 108.0305,
        "meta_mean_anomaly": 252.0961,
        "meta_ephemeris_type": 0,
        "meta_classification_type": "U",
        "meta_norad_cat_id": 65815,
        "meta_element_set_no": 999,
        "meta_rev_at_epoch": 1255,
        "meta_bstar": 6.6497963e-05,
        "meta_mean_motion_dot": 9.8e-07,
        "meta_mean_motion_ddot": 0,
        "tle_line1": "1 65815U 25219A   25358.21491827  .00000098  00000+0  66498-4 0  9994",
        "tle_line2": "2 65815  98.6601 297.5569 0000822 108.0305 252.0961 14.19907616 12551"
      },
      "geometry": {
        "type": "Point",
        "coordinates": [
          -83.92838244957612,
          67.9637851472441
        ]
      }
    }
  ]
}